MMS 4                   
1 40485U 15011D   17342.78721065 -.00001077  00000-0  00000+0 0  9997
2 40485  19.8458 309.2679 9040809 161.1301 238.4772  0.35513806  8267
